<ndm>
    <omm id="CCSDS_OMM_VERS" version="3.0">
        <header>
            <COMMENT>GENERATED VIA SPACE-TRACK.ORG API</COMMENT>
            <CREATION_DATE>2025-06-09T04:21:09</CREATION_DATE>
            <ORIGINATOR>18 SPCS</ORIGINATOR>
        </header>
        <body>
            <segment>
                <metadata>
                    <OBJECT_NAME>VANGUARD 1</OBJECT_NAME>
                    <OBJECT_ID>1958-002B</OBJECT_ID>
                    <CENTER_NAME>EARTH</CENTER_NAME>
                    <REF_FRAME>TEME</REF_FRAME>
                    <TIME_SYSTEM>UTC</TIME_SYSTEM>
                    <MEAN_ELEMENT_THEORY>SGP4</MEAN_ELEMENT_THEORY>
                </metadata>
                <data>
                    <meanElements>
                        <EPOCH>2025-06-08T15:45:48.574080</EPOCH>
                        <MEAN_MOTION>10.85926524</MEAN_MOTION>
                        <ECCENTRICITY>0.18418470</ECCENTRICITY>
                        <INCLINATION>34.2624</INCLINATION>
                        <RA_OF_ASC_NODE>27.2113</RA_OF_ASC_NODE>
                        <ARG_OF_PERICENTER>254.3563</ARG_OF_PERICENTER>
                        <MEAN_ANOMALY>84.7117</MEAN_ANOMALY>
                    </meanElements>
                    <tleParameters>
                        <EPHEMERIS_TYPE>0</EPHEMERIS_TYPE>
                        <CLASSIFICATION_TYPE>U</CLASSIFICATION_TYPE>
                        <NORAD_CAT_ID>5</NORAD_CAT_ID>
                        <ELEMENT_SET_NO>999</ELEMENT_SET_NO>
                        <REV_AT_EPOCH>40267</REV_AT_EPOCH>
                        <BSTAR>0.00002268100000</BSTAR>
                        <MEAN_MOTION_DOT>0.00000038</MEAN_MOTION_DOT>
                        <MEAN_MOTION_DDOT>0.0000000000000</MEAN_MOTION_DDOT>
                    </tleParameters>
                    <userDefinedParameters>
                        <USER_DEFINED parameter="SEMIMAJOR_AXIS">8613.934</USER_DEFINED>
                        <USER_DEFINED parameter="PERIOD">132.606</USER_DEFINED>
                        <USER_DEFINED parameter="APOAPSIS">3822.354</USER_DEFINED>
                        <USER_DEFINED parameter="PERIAPSIS">649.244</USER_DEFINED>
                        <USER_DEFINED parameter="OBJECT_TYPE">PAYLOAD</USER_DEFINED>
                        <USER_DEFINED parameter="RCS_SIZE">SMALL</USER_DEFINED>
                        <USER_DEFINED parameter="COUNTRY_CODE">US</USER_DEFINED>
                        <USER_DEFINED parameter="LAUNCH_DATE">1958-03-17</USER_DEFINED>
                        <USER_DEFINED parameter="SITE">AFETR</USER_DEFINED>
                        <USER_DEFINED parameter="DECAY_DATE"/>
                        <USER_DEFINED parameter="FILE">4752310</USER_DEFINED>
                        <USER_DEFINED parameter="GP_ID">289500727</USER_DEFINED>
                    </userDefinedParameters>
                </data>
            </segment>
        </body>
    </omm>
    <omm id="CCSDS_OMM_VERS" version="3.0">
        <header>
            <COMMENT>GENERATED VIA SPACE-TRACK.ORG API</COMMENT>
            <CREATION_DATE>2025-06-09T04:21:09</CREATION_DATE>
            <ORIGINATOR>18 SPCS</ORIGINATOR>
        </header>
        <body>
            <segment>
                <metadata>
                    <OBJECT_NAME>VANGUARD 2</OBJECT_NAME>
                    <OBJECT_ID>1959-001A</OBJECT_ID>
                    <CENTER_NAME>EARTH</CENTER_NAME>
                    <REF_FRAME>TEME</REF_FRAME>
                    <TIME_SYSTEM>UTC</TIME_SYSTEM>
                    <MEAN_ELEMENT_THEORY>SGP4</MEAN_ELEMENT_THEORY>
                </metadata>
                <data>
                    <meanElements>
                        <EPOCH>2025-06-08T17:42:21.866976</EPOCH>
                        <MEAN_MOTION>11.89849421</MEAN_MOTION>
                        <ECCENTRICITY>0.14482810</ECCENTRICITY>
                        <INCLINATION>32.8673</INCLINATION>
                        <RA_OF_ASC_NODE>57.8935</RA_OF_ASC_NODE>
                        <ARG_OF_PERICENTER>92.6382</ARG_OF_PERICENTER>
                        <MEAN_ANOMALY>284.0237</MEAN_ANOMALY>
                    </meanElements>
                    <tleParameters>
                        <EPHEMERIS_TYPE>0</EPHEMERIS_TYPE>
                        <CLASSIFICATION_TYPE>U</CLASSIFICATION_TYPE>
                        <NORAD_CAT_ID>11</NORAD_CAT_ID>
                        <ELEMENT_SET_NO>999</ELEMENT_SET_NO>
                        <REV_AT_EPOCH>49096</REV_AT_EPOCH>
                        <BSTAR>0.00073457000000</BSTAR>
                        <MEAN_MOTION_DOT>0.00001384</MEAN_MOTION_DOT>
                        <MEAN_MOTION_DDOT>0.0000000000000</MEAN_MOTION_DDOT>
                    </tleParameters>
                    <userDefinedParameters>
                        <USER_DEFINED parameter="SEMIMAJOR_AXIS">8104.766</USER_DEFINED>
                        <USER_DEFINED parameter="PERIOD">121.024</USER_DEFINED>
                        <USER_DEFINED parameter="APOAPSIS">2900.429</USER_DEFINED>
                        <USER_DEFINED parameter="PERIAPSIS">552.834</USER_DEFINED>
                        <USER_DEFINED parameter="OBJECT_TYPE">PAYLOAD</USER_DEFINED>
                        <USER_DEFINED parameter="RCS_SIZE">MEDIUM</USER_DEFINED>
                        <USER_DEFINED parameter="COUNTRY_CODE">US</USER_DEFINED>
                        <USER_DEFINED parameter="LAUNCH_DATE">1959-02-17</USER_DEFINED>
                        <USER_DEFINED parameter="SITE">AFETR</USER_DEFINED>
                        <USER_DEFINED parameter="DECAY_DATE"/>
                        <USER_DEFINED parameter="FILE">4752310</USER_DEFINED>
                        <USER_DEFINED parameter="GP_ID">289501227</USER_DEFINED>
                    </userDefinedParameters>
                </data>
            </segment>
        </body>
    </omm>
    
</ndm>
