5,VANGUARD 1,1958,132.61,-1.0,UNK,34.26,Inactive,0,MEO,USA,USA,Unknown,Unknown,Unknown,1 00005U 58002B   25159.65681220  .00000038  00000+0  22681-4 0  9995,2 00005  34.2624  27.2113 1841847 254.3563  84.7117 10.85926524402674,10.85926524,0.1841847,MEO
11,VANGUARD 2,1959,121.02,-1.0,UNK,32.87,Inactive,0,LEO,USA,USA,Unknown,Unknown,Unknown,1 00011U 59001A   25159.73775309  .00001384  00000+0  73457-3 0  9994,2 00011  32.8673  57.8935 1448281  92.6382 284.0237 11.89849421490969,11.89849421,0.1448281,LEO
